{"type": "FeatureCollection", "features": [ {"type": "Feature", "properties": {"norad_id": 34976, "name": "COSMOS 2251 DEB", "group": "cosmos-2251-debris", "lat": -40.17047206323848, "lon": 143.8014202046097, "alt_km": 670.220285160939, "timestamp": "2025-12-10T21:43:22.486774+00:00", "meta": {"OBJECT_NAME": "COSMOS 2251 DEB", "OBJECT_ID": "1993-036AFF", "EPOCH": "2025-12-10T08:25:01.072704", "MEAN_MOTION": 14.76478285, "ECCENTRICITY": 0.0047841, "INCLINATION": 74.0579, "RA_OF_ASC_NODE": 310.922, "ARG_OF_PERICENTER": 358.2108, "MEAN_ANOMALY": 158.5424, "EPHEMERIS_TYPE": 0, "CLASSIFICATION_TYPE": "U", "NORAD_CAT_ID": 34976, "ELEMENT_SET_NO": 999, "REV_AT_EPOCH": 88238, "BSTAR": 0.0025157785, "MEAN_MOTION_DOT": 0.00017864, "MEAN_MOTION_DDOT": 0}, "tle": {"line1": "1 34976U 93036AFF 25344.35070686  .00017864  00000+0  25158-2 0  9991", "line2": "2 34976  74.0579 310.9220 0047841 358.2108 158.5424 14.76478285882381"}}, "geometry": {"type": "Point", "coordinates": [143.8014202046097, -40.17047206323848]}}, {"type": "Feature", "properties": {"norad_id": 34979, "name": "COSMOS 2251 DEB", "group": "cosmos-2251-debris", "lat": -66.04667205763973, "lon": 130.97889856172364, "alt_km": 642.6292664527618, "timestamp": "2025-12-10T21:43:22.486784+00:00", "meta": {"OBJECT_NAME": "COSMOS 2251 DEB", "OBJECT_ID": "1993-036AFJ", "EPOCH": "2025-12-10T04:21:14.489280", "MEAN_MOTION": 14.79267553, "ECCENTRICITY": 0.00491023, "INCLINATION": 74.0397, "RA_OF_ASC_NODE": 272.2961, "ARG_OF_PERICENTER": 350.7379, "MEAN_ANOMALY": 9.2886, "EPHEMERIS_TYPE": 0, "CLASSIFICATION_TYPE": "U", "NORAD_CAT_ID": 34979, "ELEMENT_SET_NO": 999, "REV_AT_EPOCH": 88182, "BSTAR": 0.0020199082, "MEAN_MOTION_DOT": 0.00015328, "MEAN_MOTION_DDOT": 0}, "tle": {"line1": "1 34979U 93036AFJ 25344.18141770  .00015328  00000+0  20199-2 0  9991", "line2": "2 34979  74.0397 272.2961 0049102 350.7379   9.2886 14.79267553881822"}}, "geometry": {"type": "Point", "coordinates": [130.97889856172364, -66.04667205763973]}}, {"type": "Feature", "properties": {"norad_id": 34990, "name": "COSMOS 2251 DEB", "group": "cosmos-2251-debris", "lat": -56.564693908778814, "lon": 100.41312409179335, "alt_km": 754.7207341668391, "timestamp": "2025-12-10T21:43:22.486794+00:00", "meta": {"OBJECT_NAME": "COSMOS 2251 DEB", "OBJECT_ID": "1993-036AFN", "EPOCH": "2025-12-07T01:03:28.213920", "MEAN_MOTION": 14.42350123, "ECCENTRICITY": 0.00162731, "INCLINATION": 74.0455, "RA_OF_ASC_NODE": 261.8923, "ARG_OF_PERICENTER": 325.0179, "MEAN_ANOMALY": 34.9906, "EPHEMERIS_TYPE": 0, "CLASSIFICATION_TYPE": "U", "NORAD_CAT_ID": 34990, "ELEMENT_SET_NO": 999, "REV_AT_EPOCH": 87264, "BSTAR": 0.00072596004, "MEAN_MOTION_DOT": 2.377e-05, "MEAN_MOTION_DDOT": 0}, "tle": {"line1": "1 34990U 93036AFN 25341.04407655  .00002377  00000+0  72596-3 0  9992", "line2": "2 34990  74.0455 261.8923 0016273 325.0179  34.9906 14.42350123872642"}}, "geometry": {"type": "Point", "coordinates": [100.41312409179335, -56.564693908778814]}}, {"type": "Feature", "properties": {"norad_id": 34997, "name": "COSMOS 2251 DEB", "group": "cosmos-2251-debris", "lat": 24.84712770744771, "lon": -37.65295496080692, "alt_km": 745.9351575375213, "timestamp": "2025-12-10T21:43:22.486805+00:00", "meta": {"OBJECT_NAME": "COSMOS 2251 DEB", "OBJECT_ID": "1993-036AFV", "EPOCH": "2025-12-09T15:42:21.613248", "MEAN_MOTION": 14.45493879, "ECCENTRICITY": 0.00979027, "INCLINATION": 73.8812, "RA_OF_ASC_NODE": 317.0047, "ARG_OF_PERICENTER": 292.5764, "MEAN_ANOMALY": 66.5057, "EPHEMERIS_TYPE": 0, "CLASSIFICATION_TYPE": "U", "NORAD_CAT_ID": 34997, "ELEMENT_SET_NO": 999, "REV_AT_EPOCH": 70702, "BSTAR": 0.002944294, "MEAN_MOTION_DOT": 0.00010999, "MEAN_MOTION_DDOT": 0}, "tle": {"line1": "1 34997U 93036AFV 25343.65441682  .00010999  00000+0  29443-2 0  9997", "line2": "2 34997  73.8812 317.0047 0097902 292.5764  66.5057 14.45493879707026"}}, "geometry": {"type": "Point", "coordinates": [-37.65295496080692, 24.84712770744771]}}, {"type": "Feature", "properties": {"norad_id": 34998, "name": "COSMOS 2251 DEB", "group": "cosmos-2251-debris", "lat": -55.81162460728579, "lon": 8.400352130378916, "alt_km": 729.4996713205073, "timestamp": "2025-12-10T21:43:22.486815+00:00", "meta": {"OBJECT_NAME": "COSMOS 2251 DEB", "OBJECT_ID": "1993-036AFW", "EPOCH": "2025-12-09T11:37:03.426816", "MEAN_MOTION": 14.4925952, "ECCENTRICITY": 0.00210124, "INCLINATION": 74.0095, "RA_OF_ASC_NODE": 166.0998, "ARG_OF_PERICENTER": 311.9127, "MEAN_ANOMALY": 76.4992, "EPHEMERIS_TYPE": 0, "CLASSIFICATION_TYPE": "U", "NORAD_CAT_ID": 34998, "ELEMENT_SET_NO": 999, "REV_AT_EPOCH": 87373, "BSTAR": 0.00089460042, "MEAN_MOTION_DOT": 3.394e-05, "MEAN_MOTION_DDOT": 0}, "tle": {"line1": "1 34998U 93036AFW 25343.48406744  .00003394  00000+0  89460-3 0  9996", "line2": "2 34998  74.0095 166.0998 0021012 311.9127  76.4992 14.49259520873735"}}, "geometry": {"type": "Point", "coordinates": [8.400352130378916, -55.81162460728579]}}, {"type": "Feature", "properties": {"norad_id": 35000, "name": "COSMOS 2251 DEB", "group": "cosmos-2251-debris", "lat": -29.390133960499483, "lon": -167.14781472854872, "alt_km": 318.76278747399374, "timestamp": "2025-12-10T21:43:22.486825+00:00", "meta": {"OBJECT_NAME": "COSMOS 2251 DEB", "OBJECT_ID": "1993-036AFY", "EPOCH": "2025-12-10T00:39:45.535104", "MEAN_MOTION": 15.84722247, "ECCENTRICITY": 0.00096992, "INCLINATION": 73.9939, "RA_OF_ASC_NODE": 204.1935, "ARG_OF_PERICENTER": 175.3945, "MEAN_ANOMALY": 184.7377, "EPHEMERIS_TYPE": 0, "CLASSIFICATION_TYPE": "U", "NORAD_CAT_ID": 35000, "ELEMENT_SET_NO": 999, "REV_AT_EPOCH": 88472, "BSTAR": 0.007821664, "MEAN_MOTION_DOT": 0.0209211, "MEAN_MOTION_DDOT": 0}, "tle": {"line1": "1 35000U 93036AFY 25344.02761036  .02092110  00000+0  78217-2 0  9993", "line2": "2 35000  73.9939 204.1935 0009699 175.3945 184.7377 15.84722247884729"}}, "geometry": {"type": "Point", "coordinates": [-167.14781472854872, -29.390133960499483]}}, {"type": "Feature", "properties": {"norad_id": 35012, "name": "COSMOS 2251 DEB", "group": "cosmos-2251-debris", "lat": -54.06201939283137, "lon": -41.55379110706615, "alt_km": 691.6747303915627, "timestamp": "2025-12-10T21:43:22.486835+00:00", "meta": {"OBJECT_NAME": "COSMOS 2251 DEB", "OBJECT_ID": "1993-036AFZ", "EPOCH": "2025-12-10T08:59:46.936320", "MEAN_MOTION": 14.45543822, "ECCENTRICITY": 0.00816553, "INCLINATION": 74.0197, "RA_OF_ASC_NODE": 116.1499, "ARG_OF_PERICENTER": 256.7977, "MEAN_ANOMALY": 102.4062, "EPHEMERIS_TYPE": 0, "CLASSIFICATION_TYPE": "U", "NORAD_CAT_ID": 35012, "ELEMENT_SET_NO": 999, "REV_AT_EPOCH": 87527, "BSTAR": 0.00029743364, "MEAN_MOTION_DOT": 1.064e-05, "MEAN_MOTION_DDOT": 0}, "tle": {"line1": "1 35012U 93036AFZ 25344.37484880  .00001064  00000+0  29743-3 0  9990", "line2": "2 35012  74.0197 116.1499 0081655 256.7977 102.4062 14.45543822875272"}}, "geometry": {"type": "Point", "coordinates": [-41.55379110706615, -54.06201939283137]}}, {"type": "Feature", "properties": {"norad_id": 35014, "name": "COSMOS 2251 DEB", "group": "cosmos-2251-debris", "lat": 29.88472136771843, "lon": -142.36008616593736, "alt_km": 641.5023361817675, "timestamp": "2025-12-10T21:43:22.486845+00:00", "meta": {"OBJECT_NAME": "COSMOS 2251 DEB", "OBJECT_ID": "1993-036AGB", "EPOCH": "2025-12-10T11:17:04.408224", "MEAN_MOTION": 14.75108648, "ECCENTRICITY": 0.0007489, "INCLINATION": 73.9993, "RA_OF_ASC_NODE": 47.9831, "ARG_OF_PERICENTER": 224.1256, "MEAN_ANOMALY": 135.932, "EPHEMERIS_TYPE": 0, "CLASSIFICATION_TYPE": "U", "NORAD_CAT_ID": 35014, "ELEMENT_SET_NO": 999, "REV_AT_EPOCH": 71303, "BSTAR": 0.0024781418, "MEAN_MOTION_DOT": 0.00016732, "MEAN_MOTION_DDOT": 0}, "tle": {"line1": "1 35014U 93036AGB 25344.47018991  .00016732  00000+0  24781-2 0  9993", "line2": "2 35014  73.9993  47.9831 0007489 224.1256 135.9320 14.75108648713038"}}, "geometry": {"type": "Point", "coordinates": [-142.36008616593736, 29.88472136771843]}}, {"type": "Feature", "properties": {"norad_id": 35015, "name": "COSMOS 2251 DEB", "group": "cosmos-2251-debris", "lat": 3.5330603333496207, "lon": -120.80757092918783, "alt_km": 750.3008446328531, "timestamp": "2025-12-10T21:43:22.486855+00:00", "meta": {"OBJECT_NAME": "COSMOS 2251 DEB", "OBJECT_ID": "1993-036AGC", "EPOCH": "2025-12-08T23:19:05.687904", "MEAN_MOTION": 14.46841193, "ECCENTRICITY": 0.0074204, "INCLINATION": 73.9478, "RA_OF_ASC_NODE": 241.8046, "ARG_OF_PERICENTER": 111.6456, "MEAN_ANOMALY": 265.9615, "EPHEMERIS_TYPE": 0, "CLASSIFICATION_TYPE": "U", "NORAD_CAT_ID": 35015, "ELEMENT_SET_NO": 999, "REV_AT_EPOCH": 65386, "BSTAR": 0.00095869, "MEAN_MOTION_DOT": 3.57e-05, "MEAN_MOTION_DDOT": 0}, "tle": {"line1": "1 35015U 93036AGC 25342.97159361  .00003570  00000+0  95869-3 0  9996", "line2": "2 35015  73.9478 241.8046 0074204 111.6456 265.9615 14.46841193653863"}}, "geometry": {"type": "Point", "coordinates": [-120.80757092918783, 3.5330603333496207]}}, {"type": "Feature", "properties": {"norad_id": 35016, "name": "COSMOS 2251 DEB", "group": "cosmos-2251-debris", "lat": 69.23910120506002, "lon": 68.30843222994777, "alt_km": 797.566504000345, "timestamp": "2025-12-10T21:43:22.486866+00:00", "meta": {"OBJECT_NAME": "COSMOS 2251 DEB", "OBJECT_ID": "1993-036AGD", "EPOCH": "2025-12-10T15:22:20.129664", "MEAN_MOTION": 14.35053714, "ECCENTRICITY": 0.01146298, "INCLINATION": 73.9299, "RA_OF_ASC_NODE": 298.2962, "ARG_OF_PERICENTER": 215.7196, "MEAN_ANOMALY": 322.3039, "EPHEMERIS_TYPE": 0, "CLASSIFICATION_TYPE": "U", "NORAD_CAT_ID": 35016, "ELEMENT_SET_NO": 999, "REV_AT_EPOCH": 86752, "BSTAR": 0.00053949447, "MEAN_MOTION_DOT": 1.629e-05, "MEAN_MOTION_DDOT": 0}, "tle": {"line1": "1 35016U 93036AGD 25344.64051076  .00001629  00000+0  53949-3 0  9993", "line2": "2 35016  73.9299 298.2962 0114629 215.7196 322.3039 14.35053714867521"}}, "geometry": {"type": "Point", "coordinates": [68.30843222994777, 69.23910120506002]}}]}